{
  "type": "FeatureCollection",
  "features": [
    {
      "type": "Feature",
      "properties": {
        "road_code": "RD001",
        "road_name": "东二环快速路",
        "road_level": "express",
        "length_km": 18.5,
        "lanes": 8,
        "is_key_route": true,
        "priority": 1,
        "color": "#dc2626",
        "width": 8
      },
      "geometry": {
        "type": "LineString",
        "coordinates": [
          [116.408, 39.88],
          [116.41, 39.895],
          [116.415, 39.91],
          [116.42, 39.925],
          [116.425, 39.94],
          [116.428, 39.955],
          [116.43, 39.97]
        ]
      }
    },
    {
      "type": "Feature",
      "properties": {
        "road_code": "RD002",
        "road_name": "中山大道",
        "road_level": "main",
        "length_km": 12.3,
        "lanes": 6,
        "is_key_route": true,
        "priority": 1,
        "color": "#ea580c",
        "width": 6
      },
      "geometry": {
        "type": "LineString",
        "coordinates": [
          [116.38, 39.905],
          [116.395, 39.908],
          [116.41, 39.91],
          [116.425, 39.912],
          [116.44, 39.915],
          [116.455, 39.918],
          [116.47, 39.92]
        ]
      }
    },
    {
      "type": "Feature",
      "properties": {
        "road_code": "RD003",
        "road_name": "人民大街",
        "road_level": "main",
        "length_km": 9.8,
        "lanes": 6,
        "is_key_route": true,
        "priority": 2,
        "color": "#ea580c",
        "width": 6
      },
      "geometry": {
        "type": "LineString",
        "coordinates": [
          [116.415, 39.87],
          [116.416, 39.885],
          [116.417, 39.9],
          [116.418, 39.915],
          [116.419, 39.93],
          [116.42, 39.945],
          [116.421, 39.96]
        ]
      }
    },
    {
      "type": "Feature",
      "properties": {
        "road_code": "RD004",
        "road_name": "解放大道",
        "road_level": "main",
        "length_km": 8.5,
        "lanes": 4,
        "is_key_route": false,
        "priority": 2,
        "color": "#ea580c",
        "width": 6
      },
      "geometry": {
        "type": "LineString",
        "coordinates": [
          [116.375, 39.93],
          [116.39, 39.932],
          [116.405, 39.934],
          [116.42, 39.936],
          [116.435, 39.938],
          [116.448, 39.94]
        ]
      }
    },
    {
      "type": "Feature",
      "properties": {
        "road_code": "RD005",
        "road_name": "文化路",
        "road_level": "secondary",
        "length_km": 5.2,
        "lanes": 4,
        "is_key_route": false,
        "priority": 3,
        "color": "#ca8a04",
        "width": 4
      },
      "geometry": {
        "type": "LineString",
        "coordinates": [
          [116.395, 39.89],
          [116.405, 39.893],
          [116.415, 39.896],
          [116.425, 39.899],
          [116.435, 39.902],
          [116.445, 39.905]
        ]
      }
    },
    {
      "type": "Feature",
      "properties": {
        "road_code": "RD006",
        "road_name": "学府路",
        "road_level": "secondary",
        "length_km": 6.8,
        "lanes": 4,
        "is_key_route": false,
        "priority": 3,
        "color": "#ca8a04",
        "width": 4
      },
      "geometry": {
        "type": "LineString",
        "coordinates": [
          [116.405, 39.88],
          [116.407, 39.895],
          [116.409, 39.91],
          [116.411, 39.925],
          [116.413, 39.94],
          [116.415, 39.955]
        ]
      }
    },
    {
      "type": "Feature",
      "properties": {
        "road_code": "RD007",
        "road_name": "建设路",
        "road_level": "secondary",
        "length_km": 4.5,
        "lanes": 2,
        "is_key_route": false,
        "priority": 3,
        "color": "#ca8a04",
        "width": 4
      },
      "geometry": {
        "type": "LineString",
        "coordinates": [
          [116.385, 39.915],
          [116.395, 39.917],
          [116.405, 39.919],
          [116.415, 39.921],
          [116.425, 39.923]
        ]
      }
    },
    {
      "type": "Feature",
      "properties": {
        "road_code": "RD008",
        "road_name": "西三环快速路",
        "road_level": "express",
        "length_km": 22.0,
        "lanes": 8,
        "is_key_route": true,
        "priority": 1,
        "color": "#dc2626",
        "width": 8
      },
      "geometry": {
        "type": "LineString",
        "coordinates": [
          [116.335, 39.87],
          [116.333, 39.885],
          [116.331, 39.9],
          [116.329, 39.915],
          [116.327, 39.93],
          [116.325, 39.945],
          [116.323, 39.96],
          [116.321, 39.975],
          [116.32, 39.99]
        ]
      }
    },
    {
      "type": "Feature",
      "properties": {
        "road_code": "RD009",
        "road_name": "幸福街",
        "road_level": "branch",
        "length_km": 2.1,
        "lanes": 2,
        "is_key_route": false,
        "priority": 4,
        "color": "#65a30d",
        "width": 2
      },
      "geometry": {
        "type": "LineString",
        "coordinates": [
          [116.428, 39.908],
          [116.433, 39.909],
          [116.438, 39.91],
          [116.443, 39.911]
        ]
      }
    },
    {
      "type": "Feature",
      "properties": {
        "road_code": "RD010",
        "road_name": "安康路",
        "road_level": "branch",
        "length_km": 1.8,
        "lanes": 2,
        "is_key_route": false,
        "priority": 5,
        "color": "#65a30d",
        "width": 2
      },
      "geometry": {
        "type": "LineString",
        "coordinates": [
          [116.43, 39.915],
          [116.431, 39.92],
          [116.432, 39.925],
          [116.433, 39.93]
        ]
      }
    },
    {
      "type": "Feature",
      "properties": {
        "road_code": "RD011",
        "road_name": "环城北路",
        "road_level": "main",
        "length_km": 15.0,
        "lanes": 6,
        "is_key_route": true,
        "priority": 1,
        "color": "#ea580c",
        "width": 6
      },
      "geometry": {
        "type": "LineString",
        "coordinates": [
          [116.35, 39.955],
          [116.37, 39.957],
          [116.39, 39.959],
          [116.41, 39.961],
          [116.43, 39.963],
          [116.45, 39.965],
          [116.465, 39.967]
        ]
      }
    },
    {
      "type": "Feature",
      "properties": {
        "road_code": "RD012",
        "road_name": "和平路",
        "road_level": "secondary",
        "length_km": 7.3,
        "lanes": 4,
        "is_key_route": false,
        "priority": 3,
        "color": "#ca8a04",
        "width": 4
      },
      "geometry": {
        "type": "LineString",
        "coordinates": [
          [116.385, 39.88],
          [116.388, 39.895],
          [116.391, 39.91],
          [116.394, 39.925],
          [116.397, 39.94],
          [116.4, 39.955]
        ]
      }
    }
  ]
}
